[{"OBJECT_NAME":"SL-12 R/B(2)","OBJECT_ID":"1985-102D","EPOCH":"2026-03-14T19:43:03.603072","MEAN_MOTION":1.0062187,"ECCENTRICITY":0.00186669,"INCLINATION":9.6074,"RA_OF_ASC_NODE":318.6031,"ARG_OF_PERICENTER":154.6178,"MEAN_ANOMALY":192.5804,"EPHEMERIS_TYPE":0,"CLASSIFICATION_TYPE":"U","NORAD_CAT_ID":16214,"ELEMENT_SET_NO":999,"REV_AT_EPOCH":12389,"BSTAR":0,"MEAN_MOTION_DOT":1.2e-6,"MEAN_MOTION_DDOT":0},{"OBJECT_NAME":"RADUGA 17","OBJECT_ID":"1985-107A","EPOCH":"2026-03-15T00:30:36.029376","MEAN_MOTION":1.00161329,"ECCENTRICITY":0.00123645,"INCLINATION":9.7659,"RA_OF_ASC_NODE":318.9478,"ARG_OF_PERICENTER":238.9774,"MEAN_ANOMALY":107.5,"EPHEMERIS_TYPE":0,"CLASSIFICATION_TYPE":"U","NORAD_CAT_ID":16250,"ELEMENT_SET_NO":999,"REV_AT_EPOCH":15072,"BSTAR":0,"MEAN_MOTION_DOT":-3.64e-6,"MEAN_MOTION_DDOT":0},{"OBJECT_NAME":"MORELOS 2","OBJECT_ID":"1985-109B","EPOCH":"2026-03-13T16:21:51.775200","MEAN_MOTION":0.99568643,"ECCENTRICITY":0.00022489,"INCLINATION":14.7594,"RA_OF_ASC_NODE":357.4256,"ARG_OF_PERICENTER":173.6159,"MEAN_ANOMALY":29.8568,"EPHEMERIS_TYPE":0,"CLASSIFICATION_TYPE":"U","NORAD_CAT_ID":16274,"ELEMENT_SET_NO":999,"REV_AT_EPOCH":4540,"BSTAR":0,"MEAN_MOTION_DOT":-3.25e-6,"MEAN_MOTION_DDOT":0},{"OBJECT_NAME":"OPTUS A2 (AUSSAT 2)","OBJECT_ID":"1985-109C","EPOCH":"2026-03-14T09:26:48.544224","MEAN_MOTION":0.99948959,"ECCENTRICITY":0.00062668,"INCLINATION":13.4361,"RA_OF_ASC_NODE":340.8151,"ARG_OF_PERICENTER":321.7795,"MEAN_ANOMALY":207.9079,"EPHEMERIS_TYPE":0,"CLASSIFICATION_TYPE":"U","NORAD_CAT_ID":16275,"ELEMENT_SET_NO":999,"REV_AT_EPOCH":4558,"BSTAR":0,"MEAN_MOTION_DOT":7.7e-7,"MEAN_MOTION_DDOT":0},{"OBJECT_NAME":"SATCOM K2","OBJECT_ID":"1985-109D","EPOCH":"2026-03-14T14:18:16.320672","MEAN_MOTION":0.99614651,"ECCENTRICITY":0.0012201,"INCLINATION":14.7307,"RA_OF_ASC_NODE":353.1064,"ARG_OF_PERICENTER":287.3141,"MEAN_ANOMALY":245.131,"EPHEMERIS_TYPE":0,"CLASSIFICATION_TYPE":"U","NORAD_CAT_ID":16276,"ELEMENT_SET_NO":999,"REV_AT_EPOCH":12465,"BSTAR":0,"MEAN_MOTION_DOT":-3.38e-6,"MEAN_MOTION_DDOT":0},{"OBJECT_NAME":"MOLNIYA 3-27","OBJECT_ID":"1985-117A","EPOCH":"2026-03-07T10:26:42.644256","MEAN_MOTION":2.12406279,"ECCENTRICITY":0.71179232,"INCLINATION":62.043,"RA_OF_ASC_NODE":240.0577,"ARG_OF_PERICENTER":250.9329,"MEAN_ANOMALY":24.609,"EPHEMERIS_TYPE":0,"CLASSIFICATION_TYPE":"U","NORAD_CAT_ID":16393,"ELEMENT_SET_NO":999,"REV_AT_EPOCH":30304,"BSTAR":-0.0094786405,"MEAN_MOTION_DOT":6.5e-7,"MEAN_MOTION_DDOT":0},{"OBJECT_NAME":"SL-6 R/B(2)","OBJECT_ID":"1985-117F","EPOCH":"2026-03-11T00:14:12.572736","MEAN_MOTION":1.96546084,"ECCENTRICITY":0.73746256,"INCLINATION":63.3253,"RA_OF_ASC_NODE":46.7219,"ARG_OF_PERICENTER":252.9905,"MEAN_ANOMALY":20.7657,"EPHEMERIS_TYPE":0,"CLASSIFICATION_TYPE":"U","NORAD_CAT_ID":16402,"ELEMENT_SET_NO":999,"REV_AT_EPOCH":28864,"BSTAR":0.002197193,"MEAN_MOTION_DOT":1.186e-5,"MEAN_MOTION_DDOT":0},{"OBJECT_NAME":"SATCOM K1","OBJECT_ID":"1986-003B","EPOCH":"2026-03-13T13:02:38.820768","MEAN_MOTION":0.9956035,"ECCENTRICITY":0.00033292,"INCLINATION":14.7088,"RA_OF_ASC_NODE":351.8178,"ARG_OF_PERICENTER":289.779,"MEAN_ANOMALY":282.5622,"EPHEMERIS_TYPE":0,"CLASSIFICATION_TYPE":"U","NORAD_CAT_ID":16482,"ELEMENT_SET_NO":999,"REV_AT_EPOCH":12349,"BSTAR":0,"MEAN_MOTION_DOT":1.7e-7,"MEAN_MOTION_DDOT":0},{"OBJECT_NAME":"RADUGA 18","OBJECT_ID":"1986-007A","EPOCH":"2026-03-15T06:11:40.818048","MEAN_MOTION":0.98811131,"ECCENTRICITY":0.00689464,"INCLINATION":10.6697,"RA_OF_ASC_NODE":321.7877,"ARG_OF_PERICENTER":199.8009,"MEAN_ANOMALY":345.6337,"EPHEMERIS_TYPE":0,"CLASSIFICATION_TYPE":"U","NORAD_CAT_ID":16497,"ELEMENT_SET_NO":999,"REV_AT_EPOCH":14493,"BSTAR":0,"MEAN_MOTION_DOT":4.0e-7,"MEAN_MOTION_DDOT":0},{"OBJECT_NAME":"STTW-1","OBJECT_ID":"1986-010A","EPOCH":"2026-03-14T17:57:45.586656","MEAN_MOTION":1.00240001,"ECCENTRICITY":0.00038411,"INCLINATION":10.75,"RA_OF_ASC_NODE":324.16,"ARG_OF_PERICENTER":316.088,"MEAN_ANOMALY":260.3112,"EPHEMERIS_TYPE":0,"CLASSIFICATION_TYPE":"U","NORAD_CAT_ID":16526,"ELEMENT_SET_NO":999,"REV_AT_EPOCH":15451,"BSTAR":0,"MEAN_MOTION_DOT":-2.97e-6,"MEAN_MOTION_DDOT":0},{"OBJECT_NAME":"GSTAR 2","OBJECT_ID":"1986-026A","EPOCH":"2026-03-11T01:42:38.211840","MEAN_MOTION":0.99802765,"ECCENTRICITY":0.0003575,"INCLINATION":14.2498,"RA_OF_ASC_NODE":346.591,"ARG_OF_PERICENTER":16.2675,"MEAN_ANOMALY":176.8549,"EPHEMERIS_TYPE":0,"CLASSIFICATION_TYPE":"U","NORAD_CAT_ID":16649,"ELEMENT_SET_NO":999,"REV_AT_EPOCH":11566,"BSTAR":0,"MEAN_MOTION_DOT":-2.0e-6,"MEAN_MOTION_DDOT":0},{"OBJECT_NAME":"BRASILSAT 2","OBJECT_ID":"1986-026B","EPOCH":"2026-03-14T23:44:38.835168","MEAN_MOTION":0.99643893,"ECCENTRICITY":0.00051796,"INCLINATION":14.559,"RA_OF_ASC_NODE":351.1256,"ARG_OF_PERICENTER":331.3432,"MEAN_ANOMALY":221.7039,"EPHEMERIS_TYPE":0,"CLASSIFICATION_TYPE":"U","NORAD_CAT_ID":16650,"ELEMENT_SET_NO":999,"REV_AT_EPOCH":4544,"BSTAR":0,"MEAN_MOTION_DOT":-2.2e-7,"MEAN_MOTION_DDOT":0},{"OBJECT_NAME":"ARIANE 3 R/B","OBJECT_ID":"1986-026C","EPOCH":"2026-03-14T20:20:04.944480","MEAN_MOTION":2.25762834,"ECCENTRICITY":0.7226622,"INCLINATION":6.5759,"RA_OF_ASC_NODE":92.0546,"ARG_OF_PERICENTER":154.1663,"MEAN_ANOMALY":275.3064,"EPHEMERIS_TYPE":0,"CLASSIFICATION_TYPE":"U","NORAD_CAT_ID":16657,"ELEMENT_SET_NO":999,"REV_AT_EPOCH":27782,"BSTAR":0.00018363119,"MEAN_MOTION_DOT":8.2e-7,"MEAN_MOTION_DDOT":0},{"OBJECT_NAME":"COSMOS 1738","OBJECT_ID":"1986-027A","EPOCH":"2026-03-14T22:10:41.943648","MEAN_MOTION":1.00260897,"ECCENTRICITY":0.00116946,"INCLINATION":10.4203,"RA_OF_ASC_NODE":318.4495,"ARG_OF_PERICENTER":135.6167,"MEAN_ANOMALY":46.3196,"EPHEMERIS_TYPE":0,"CLASSIFICATION_TYPE":"U","NORAD_CAT_ID":16667,"ELEMENT_SET_NO":999,"REV_AT_EPOCH":14640,"BSTAR":0,"MEAN_MOTION_DOT":-5.5e-7,"MEAN_MOTION_DDOT":0},{"OBJECT_NAME":"GORIZONT 12","OBJECT_ID":"1986-044A","EPOCH":"2026-03-14T21:22:32.584224","MEAN_MOTION":1.00341467,"ECCENTRICITY":0.00052838,"INCLINATION":10.1998,"RA_OF_ASC_NODE":321.7333,"ARG_OF_PERICENTER":323.6793,"MEAN_ANOMALY":296.0819,"EPHEMERIS_TYPE":0,"CLASSIFICATION_TYPE":"U","NORAD_CAT_ID":16769,"ELEMENT_SET_NO":999,"REV_AT_EPOCH":14631,"BSTAR":0,"MEAN_MOTION_DOT":-2.37e-6,"MEAN_MOTION_DDOT":0},{"OBJECT_NAME":"SL-6 R/B(2)","OBJECT_ID":"1986-050D","EPOCH":"2026-03-14T22:03:05.175360","MEAN_MOTION":2.02822384,"ECCENTRICITY":0.66003338,"INCLINATION":65.7288,"RA_OF_ASC_NODE":290.9255,"ARG_OF_PERICENTER":3.0497,"MEAN_ANOMALY":180.4374,"EPHEMERIS_TYPE":0,"CLASSIFICATION_TYPE":"U","NORAD_CAT_ID":16854,"ELEMENT_SET_NO":999,"REV_AT_EPOCH":29403,"BSTAR":0,"MEAN_MOTION_DOT":-3.5e-7,"MEAN_MOTION_DDOT":0},{"OBJECT_NAME":"MOLNIYA 1-69","OBJECT_ID":"1986-089A","EPOCH":"2026-03-12T19:52:31.775520","MEAN_MOTION":2.01015851,"ECCENTRICITY":0.73382,"INCLINATION":63.5757,"RA_OF_ASC_NODE":25.321,"ARG_OF_PERICENTER":252.7586,"MEAN_ANOMALY":21.2852,"EPHEMERIS_TYPE":0,"CLASSIFICATION_TYPE":"U","NORAD_CAT_ID":17078,"ELEMENT_SET_NO":999,"REV_AT_EPOCH":28820,"BSTAR":-0.00086517346,"MEAN_MOTION_DOT":-1.4e-5,"MEAN_MOTION_DDOT":0}]
