SL-12 R/B(2)            
1 16214U 85102D   26073.82156948  .00000120  00000+0  00000+0 0  9992
2 16214   9.6074 318.6031 0018666 154.6178 192.5804  1.00621870123890
RADUGA 17               
1 16250U 85107A   26074.02125034 -.00000364  00000+0  00000+0 0  9993
2 16250   9.7659 318.9478 0012364 238.9774 107.5000  1.00161329150729
MORELOS 2               
1 16274U 85109B   26072.68184925 -.00000325  00000+0  00000+0 0  9992
2 16274  14.7594 357.4256 0002248 173.6159  29.8568  0.99568643 45403
OPTUS A2 (AUSSAT 2)     
1 16275U 85109C   26073.39361741  .00000077  00000+0  00000+0 0  9998
2 16275  13.4361 340.8151 0006266 321.7795 207.9079  0.99948959 45585
SATCOM K2               
1 16276U 85109D   26073.59602223 -.00000338  00000+0  00000+0 0  9995
2 16276  14.7307 353.1064 0012201 287.3141 245.1310  0.99614651124655
MOLNIYA 3-27            
1 16393U 85117A   26066.43521579  .00000065  00000+0 -94786-2 0  9997
2 16393  62.0430 240.0577 7117923 250.9329  24.6090  2.12406279303048
SL-6 R/B(2)             
1 16402U 85117F   26070.00986774  .00001186  00000+0  21972-2 0  9999
2 16402  63.3253  46.7219 7374625 252.9905  20.7657  1.96546084288640
SATCOM K1               
1 16482U 86003B   26072.54350487  .00000017  00000+0  00000+0 0  9997
2 16482  14.7088 351.8178 0003329 289.7790 282.5622  0.99560350123496
RADUGA 18               
1 16497U 86007A   26074.25811132  .00000040  00000+0  00000+0 0  9992
2 16497  10.6697 321.7877 0068946 199.8009 345.6337  0.98811131144936
STTW-1                  
1 16526U 86010A   26073.74844429 -.00000297  00000+0  00000+0 0  9992
2 16526  10.7500 324.1600 0003841 316.0880 260.3112  1.00240001154512
GSTAR 2                 
1 16649U 86026A   26070.07127560 -.00000200  00000+0  00000+0 0  9992
2 16649  14.2498 346.5910 0003575  16.2675 176.8549  0.99802765115666
BRASILSAT 2             
1 16650U 86026B   26073.98933837 -.00000022  00000+0  00000+0 0  9991
2 16650  14.5590 351.1256 0005179 331.3432 221.7039  0.99643893 45440
ARIANE 3 R/B            
1 16657U 86026C   26073.84727945  .00000082  00000+0  18363-3 0  9994
2 16657   6.5759  92.0546 7226622 154.1663 275.3064  2.25762834277820
COSMOS 1738             
1 16667U 86027A   26073.92409657 -.00000055  00000+0  00000+0 0  9998
2 16667  10.4203 318.4495 0011694 135.6167  46.3196  1.00260897146409
GORIZONT 12             
1 16769U 86044A   26073.89065491 -.00000237  00000+0  00000+0 0  9992
2 16769  10.1998 321.7333 0005283 323.6793 296.0819  1.00341467146318
SL-6 R/B(2)             
1 16854U 86050D   26073.91880990 -.00000035  00000+0  00000+0 0  9992
2 16854  65.7288 290.9255 6600333   3.0497 180.4374  2.02822384294034
MOLNIYA 1-69            
1 17078U 86089A   26071.82814555 -.00001400  00000+0 -86517-3 0  9994
2 17078  63.5757  25.3210 7338200 252.7586  21.2852  2.01015851288202
